EUTELSAT QUANTUM        
1 49056U 21069B   25300.55396667  .00000137  00000+0  00000+0 0  9998
2 49056   0.0549  69.0086 0002559 161.7025  52.6165  1.00272576 15591
EUTELSAT KONNECT VHTS   
1 53765U 22110A   25300.29975054  .00000028  00000+0  00000+0 0  9991
2 53765   0.0560  92.3300 0002506  95.0622 319.1546  1.00267053  4493
EUTELSAT HOTBIRD 13F    
1 54048U 22134A   25299.83348505  .00000099  00000+0  00000+0 0  9992
2 54048   0.0544 283.9159 0002000  86.3003 338.3294  1.00273222 11031
EUTELSAT HOTBIRD 13G    
1 54225U 22146A   25299.83348505  .00000099  00000+0  00000+0 0  9992
2 54225   0.0466 238.1969 0002094 290.6077 179.7137  1.00273063  5125
EUTELSAT 10B            
1 54259U 22157A   25300.68917646  .00000079  00000+0  00000+0 0  9993
2 54259   0.0579  89.6304 0001606  40.3081 164.5024  1.00269884 10693
EUTELSAT 36D            
1 59346U 24059A   25300.90840925  .00000167  00000+0  00000+0 0  9996
2 59346   0.0172 234.2745 0000251 180.8933 344.2441  1.00272389  5814
